     2.100          NAVIGATION                              RINEX VERSION / TYPE
fic2rin                                 10/14/2015 00:06:41 PGM / RUN BY / DATE
                                                            END OF HEADER
11 15 10 13 14  0  0.0 -.609932467341D-03 -.227373675443D-11  .000000000000D+00
     .700000000000D+01  .178437500000D+02  .686528596672D-08  .614000966691D+00
     .100024044514D-05  .163132561138D-01  .365637242794D-05  .515362128639D+04
     .223200000000D+06 -.210478901863D-06  .148958903177D+01 -.298023223877D-07
     .893947204215D+00  .277000000000D+03  .146741570679D+01 -.959004232090D-08
     .435732435719D-10  .100000000000D+01  .186600000000D+04  .000000000000D+00
     .240000000000D+01  .000000000000D+00 -.121071934700D-07  .700000000000D+01
     .216006000000D+06  .400000000000D+01
12 15 10 13 14  0  0.0  .336466357112D-03  .329691829393D-11  .000000000000D+00
     .850000000000D+02 -.655312500000D+02  .369622539120D-08  .664994999368D-01
    -.339373946190D-05  .550804450177D-02  .114664435387D-04  .515359888077D+04
     .223200000000D+06  .428408384323D-07 -.201423240646D+00  .968575477600D-07
     .990459502831D+00  .180593750000D+03  .646008638499D+00 -.763174646430D-08
    -.592881838766D-10  .100000000000D+01  .186600000000D+04  .000000000000D+00
     .240000000000D+01  .000000000000D+00 -.125728547573D-07  .850000000000D+02
     .216006000000D+06  .400000000000D+01
13 15 10 13 14  0  0.0 -.156398862600D-03 -.284217094304D-11  .000000000000D+00
     .880000000000D+02  .955312500000D+02  .423303346569D-08  .140114407829D+01
     .495277345181D-05  .466145039536D-02  .673905014992D-05  .515368663979D+04
     .223200000000D+06  .111758708954D-06 -.223319478262D+01 -.763684511185D-07
     .973082326979D+00  .254968750000D+03  .205771172594D+01 -.805247827518D-08
     .423231915022D-09  .100000000000D+01  .186600000000D+04  .000000000000D+00
     .240000000000D+01  .000000000000D+00 -.111758708954D-07  .880000000000D+02
     .216006000000D+06  .400000000000D+01
14 15 10 13 14  0  0.0  .284160487354D-04 -.227373675443D-11  .000000000000D+00
     .410000000000D+02  .103406250000D+03  .427946397114D-08 -.297294733014D+01
     .545941293240D-05  .844035053160D-02  .625662505627D-05  .515367030144D+04
     .223200000000D+06  .447034835815D-07 -.226874821676D+01 -.223517417908D-07
     .965606403051D+00  .260125000000D+03 -.195014840225D+01 -.792318717541D-08
     .415017287136D-09  .100000000000D+01  .186600000000D+04  .000000000000D+00
     .240000000000D+01  .000000000000D+00 -.931322574615D-08  .410000000000D+02
     .216006000000D+06  .400000000000D+01
15 15 10 13 14  0  0.0 -.276615843177D-03 -.204636307899D-11  .000000000000D+00
     .330000000000D+02  .104718750000D+03  .502663795108D-08  .261665147852D+01
     .538304448128D-05  .757321587298D-02  .782683491707D-05  .515373784256D+04
     .223200000000D+06 -.108033418655D-06 -.239748707191D+01 -.875443220139D-07
     .932452687071D+00  .214468750000D+03  .413260652776D+00 -.832641825731D-08
     .352157525917D-09  .100000000000D+01  .186600000000D+04  .000000000000D+00
     .240000000000D+01  .000000000000D+00 -.107102096081D-07  .330000000000D+02
     .216006000000D+06  .400000000000D+01
16 15 10 13 14  0  0.0 -.769281759858D-04  .375166564481D-11  .000000000000D+00
     .970000000000D+02 -.630625000000D+02  .356121976767D-08 -.195094761634D+01
    -.360049307346D-05  .811821455136D-02  .123046338558D-04  .515364431572D+04
     .223200000000D+06  .409781932831D-07 -.182717732253D+00 -.119209289551D-06
     .990997208612D+00  .156375000000D+03  .319323360620D+00 -.748602610875D-08
     .253581991279D-10  .100000000000D+01  .186600000000D+04  .000000000000D+00
     .240000000000D+01  .000000000000D+00 -.102445483208D-07  .970000000000D+02
     .216006000000D+06  .400000000000D+01
17 15 10 13 14  0  0.0 -.190837308764D-03 -.125055521494D-11  .000000000000D+00
     .150000000000D+02  .501875000000D+02  .436518182734D-08 -.292952393656D+01
     .260025262833D-05  .104851608630D-01  .860914587975D-05  .515357867241D+04
     .223200000000D+06  .204890966415D-06  .841310289665D+00 -.165775418282D-06
     .973831169874D+00  .217687500000D+03 -.200535849315D+01 -.777996692399D-08
     .584667210879D-09  .100000000000D+01  .186600000000D+04  .000000000000D+00
     .240000000000D+01  .000000000000D+00 -.107102096081D-07  .150000000000D+02
     .216006000000D+06  .400000000000D+01
18 15 10 13 14  0  0.0  .442573800683D-03  .375166564481D-11  .000000000000D+00
     .173000000000D+03 -.145937500000D+02  .510556981033D-08 -.138693891260D+01
    -.735744833946D-06  .163609053707D-01  .109635293484D-04  .515364304924D+04
     .223200000000D+06  .273808836937D-06  .286641973636D+01  .409781932831D-06
     .925448078776D+00  .149906250000D+03 -.193322056461D+01 -.824498629392D-08
    -.513949979508D-09  .100000000000D+01  .186600000000D+04  .000000000000D+00
     .240000000000D+01  .000000000000D+00 -.111758708954D-07  .173000000000D+03
     .216006000000D+06  .400000000000D+01
19 15 10 13 14  0  0.0 -.521465670317D-03 -.568434188608D-12  .000000000000D+00
     .490000000000D+02  .536875000000D+02  .459411993496D-08  .175582059517D+01
     .285543501377D-05  .113379542017D-01  .839494168758D-05  .515514733505D+04
     .223200000000D+06 -.247731804848D-06  .890528914721D+00  .109896063805D-06
     .970855045907D+00  .225500000000D+03  .654949933819D+00 -.807390773924D-08
     .550737226130D-09  .100000000000D+01  .186600000000D+04  .000000000000D+00
     .240000000000D+01  .000000000000D+00 -.149011611938D-07  .490000000000D+02
     .216006000000D+06  .400000000000D+01
20 15 10 13 14  0  0.0  .362797640264D-03  .295585778076D-11  .000000000000D+00
     .260000000000D+02 -.354375000000D+02  .513378527133D-08  .268026613619D+01
    -.187754631042D-05  .495284260251D-02  .107809901237D-04  .515365965843D+04
     .223200000000D+06  .316649675369D-07  .281430499286D+01 -.484287738800D-07
     .926634819865D+00  .152281250000D+03  .124082644819D+01 -.822319967213D-08
    -.501806616545D-09  .100000000000D+01  .186600000000D+04  .000000000000D+00
     .240000000000D+01  .000000000000D+00 -.838190317154D-08  .260000000000D+02
     .216006000000D+06  .400000000000D+01
21 15 10 13 14  0  0.0 -.486419536173D-03 -.261479726760D-11  .000000000000D+00
     .210000000000D+02 -.211875000000D+02  .581488507045D-08 -.436817586657D+00
    -.961124897003D-06  .226006569574D-01  .407733023167D-05  .515373523331D+04
     .223200000000D+06 -.227242708206D-06  .182356556065D+01  .150874257088D-06
     .934376158095D+00  .289093750000D+03 -.187097741020D+01 -.922895585163D-08
    -.228580949885D-09  .100000000000D+01  .186600000000D+04  .000000000000D+00
     .240000000000D+01  .000000000000D+00 -.116415321827D-07  .210000000000D+02
     .216006000000D+06  .400000000000D+01
22 15 10 13 14  0  0.0  .400486402214D-03  .375166564481D-11  .000000000000D+00
     .310000000000D+02 -.116562500000D+02  .508556897722D-08 -.187329428623D+01
    -.726431608200D-06  .799750350416D-02  .113081187010D-04  .515368252563D+04
     .223200000000D+06  .186264514923D-06  .286733319703D+01 -.353902578354D-07
     .923278056317D+00  .142031250000D+03 -.204217061176D+01 -.809819446516D-08
    -.441804117201D-09  .100000000000D+01  .186600000000D+04  .000000000000D+00
     .240000000000D+01  .000000000000D+00 -.176951289177D-07  .310000000000D+02
     .216006000000D+06  .400000000000D+01
23 15 10 13 14  0  0.0 -.138597562909D-03 -.216004991671D-11  .000000000000D+00
     .880000000000D+02  .112031250000D+03  .480341436720D-08  .216424385184D+01
     .564008951187D-05  .103791283909D-01  .781379640102D-05  .515379113007D+04
     .223200000000D+06 -.188127160072D-06 -.234314803462D+01 -.465661287308D-07
     .947577558637D+00  .223437500000D+03 -.262473333872D+01 -.826320133836D-08
     .348943106310D-09  .100000000000D+01  .186600000000D+04  .000000000000D+00
     .240000000000D+01  .000000000000D+00 -.200234353542D-07  .880000000000D+02
     .216006000000D+06  .400000000000D+01
24 15 10 13 14  0  0.0 -.623567029834D-05 -.682121026330D-12  .000000000000D+00
     .108000000000D+03 -.341250000000D+02  .502449500467D-08  .150051233825D+01
    -.188127160072D-05  .352822581772D-02  .197067856789D-05  .515365235329D+04
     .223200000000D+06  .279396772385D-07 -.131603924913D+01  .484287738800D-07
     .951656367348D+00  .335625000000D+03  .296705743031D+00 -.861964475709D-08
    -.135005623526D-09  .100000000000D+01  .186600000000D+04  .000000000000D+00
     .240000000000D+01  .000000000000D+00  .279396772385D-08  .108000000000D+03
     .216006000000D+06  .400000000000D+01
25 15 10 13 14  0  0.0 -.518900342286D-04 -.545696821064D-11  .000000000000D+00
     .117000000000D+03 -.698125000000D+02  .392016329054D-08 -.576546962055D+00
    -.357441604137D-05  .465240050107D-02  .108368694782D-04  .515362209702D+04
     .223200000000D+06  .577419996262D-07 -.249631540830D+00  .707805156708D-07
     .978839834185D+00  .184156250000D+03  .735475334928D+00 -.776639493009D-08
    -.106075847056D-09  .100000000000D+01  .186600000000D+04  .000000000000D+00
     .340000000000D+01  .000000000000D+00  .558793544769D-08  .117000000000D+03
     .216006000000D+06  .400000000000D+01
26 15 10 13 14  0  0.0 -.828416086733D-04 -.130739863380D-10  .000000000000D+00
     .710000000000D+02 -.685625000000D+02  .429232164957D-08 -.117772482126D+01
    -.373087823391D-05  .198823050596D-03  .111944973469D-04  .515365178108D+04
     .223200000000D+06  .372529029846D-08 -.254637190067D+00 -.745058059692D-08
     .960898206022D+00  .161468750000D+03  .304500195427D-01 -.789390024120D-08
    -.123219418298D-09  .100000000000D+01  .186600000000D+04  .000000000000D+00
     .240000000000D+01  .000000000000D+00  .745058059692D-08  .710000000000D+02
     .216006000000D+06  .400000000000D+01
